NORAD_CAT_ID,OBJECT_NAME,OBJECT_TYPE,EPOCH,MEAN_MOTION,ECCENTRICITY,INCLINATION,RA_OF_ASC_NODE,ARG_OF_PERICENTER,MEAN_ANOMALY,BSTAR,MEAN_MOTION_DOT,MEAN_MOTION_DDOT,TLE_LINE0,TLE_LINE1,TLE_LINE2,SEMIMAJOR_AXIS,PERIOD,APOGEE,PERIGEE,DECAYED
54099.0,STARLINK-5198,PAYLOAD,2022-12-19 22:00:00,15.29633547,0.0001394,53.2174,212.5379,84.3608,134.7768,-0.042808,-0.01135785,0.0,0 STARLINK-5198,1 54099U 22136BA  22353.91667824 -.01135785  00000-0 -42808-1 0  9994,2 54099  53.2174 212.5379 0001394  84.3608 134.7768 15.29633547  1301,6855.044,94.14,477.865,475.953,0.0
54099.0,STARLINK-5198,PAYLOAD,2022-12-20 14:00:01,15.28003123,0.0001202,53.2171,209.4507,74.4841,215.8452,-0.044808,-0.01130846,0.0,0 STARLINK-5198,1 54099U 22136BA  22354.58334491 -.01130846  00000-0 -44808-1 0  9994,2 54099  53.2171 209.4507 0001202  74.4841 215.8452 15.28003123  1304,6859.919,94.241,482.609,480.96,0.0
54099.0,STARLINK-5198,PAYLOAD,2022-12-21 08:00:01,15.26175192,0.0001213,53.2176,205.9879,88.9294,6.8125,-0.047593,-0.01135395,0.0,0 STARLINK-5198,1 54099U 22136BA  22355.33334491 -.01135395  00000-0 -47593-1 0  9996,2 54099  53.2176 205.9879 0001213  88.9294   6.8125 15.26175192 10169,6865.396,94.354,488.094,486.42800000000005,0.0
54099.0,STARLINK-5198,PAYLOAD,2022-12-21 14:00:01,15.25563336,0.0001169,53.2175,204.8354,96.0223,293.7579,-0.048335,-0.01147222,0.0,0 STARLINK-5198,1 54099U 22136BA  22355.58334491 -.01147222  00000-0 -48335-1 0  9990,2 54099  53.2175 204.8354 0001169  96.0223 293.7579 15.25563336  1302,6867.231,94.391,489.899,488.294,0.0
54099.0,STARLINK-5198,PAYLOAD,2022-12-22 08:00:01,15.23733523,0.0001411,53.2176,201.386,71.5035,117.0892,-0.051163,-0.01149149,0.0,0 STARLINK-5198,1 54099U 22136BA  22356.33334491 -.01149149  00000-0 -51163-1 0  9997,2 54099  53.2176 201.3860 0001411  71.5035 117.0892 15.23733523 10318,6872.728,94.505,495.56300000000016,493.62300000000016,0.0
54099.0,STARLINK-5198,PAYLOAD,2022-12-22 14:00:01,15.23123237,0.0001396999999999,53.2176,200.2379,69.3123,51.118,-0.052089,-0.01148824,0.0,0 STARLINK-5198,1 54099U 22136BA  22356.58334491 -.01148824  00000-0 -52089-1 0  9991,2 54099  53.2176 200.2379 0001397  69.3123  51.1180 15.23123237  1309,6874.564,94.543,497.389,495.468,0.0
54099.0,STARLINK-5198,PAYLOAD,2022-12-22 22:00:00,15.22310279,0.0001485,53.2176,198.7112,66.1771,82.5131,-0.053457,-0.01150675,0.0,0 STARLINK-5198,1 54099U 22136BA  22356.91667824 -.01150675  00000-0 -53457-1 0  9994,2 54099  53.2176 198.7112 0001485  66.1771  82.5131 15.22310279  1304,6877.011,94.593,499.897,497.855,0.0
54099.0,STARLINK-5198,PAYLOAD,2022-12-23 08:00:01,15.21315257,0.0001336,53.2169,196.8024,75.6826,196.9483,-0.056628,-0.01180942,0.0,0 STARLINK-5198,1 54099U 22136BA  22357.33334491 -.01180942  00000-0 -56628-1 0  9995,2 54099  53.2169 196.8024 0001336  75.6826 196.9483 15.21315257 10476,6880.009,94.655,502.794,500.955,0.0
54099.0,STARLINK-5198,PAYLOAD,2022-12-23 14:00:01,15.20690122,0.0001563,53.2167,195.6584,67.2818,134.9937,-0.05655,-0.01159612,0.0,0 STARLINK-5198,1 54099U 22136BA  22357.58334491 -.01159612  00000-0 -56550-1 0  9996,2 54099  53.2167 195.6584 0001563  67.2818 134.9937 15.20690122  1306,6881.895,94.694,504.835,502.684,0.0
54099.0,STARLINK-5198,PAYLOAD,2022-12-23 22:00:01,15.19869741,0.0001402,53.217,194.1371,81.6542,146.0146,-0.0574549999999999,-0.01150836,0.0,0 STARLINK-5198,1 54099U 22136BA  22357.91668981 -.01150836  00000-0 -57455-1 0  9991,2 54099  53.2170 194.1371 0001402  81.6542 146.0146 15.19869741  1303,6884.371,94.745,507.201,505.271,0.0
54099.0,STARLINK-5198,PAYLOAD,2022-12-24 10:00:00,15.18646191,0.0001351,53.2173,191.8537,60.6393,23.1271,-0.05933,-0.01147024,0.0,0 STARLINK-5198,1 54099U 22136BA  22358.41667824 -.01147024  00000-0 -59330-1 0  9991,2 54099  53.2173 191.8537 0001351  60.6393  23.1271 15.18646191 10639,6888.068,94.821,510.864,509.003,0.0
54099.0,STARLINK-5198,PAYLOAD,2022-12-24 14:00:01,15.18248978,0.0001363,53.2165,191.0951,71.3181,204.0066,-0.060733,-0.01159628,0.0,0 STARLINK-5198,1 54099U 22136BA  22358.58334491 -.01159628  00000-0 -60733-1 0  9992,2 54099  53.2165 191.0951 0001363  71.3181 204.0066 15.18248978  1306,6889.27,94.846,512.0740000000002,510.196,0.0
54099.0,STARLINK-5198,PAYLOAD,2022-12-24 22:00:00,15.17437689,0.0001348,53.2169,189.5798,83.8978,213.8185,-0.0623809999999999,-0.01163153,0.0,0 STARLINK-5198,1 54099U 22136BA  22358.91667824 -.01163153  00000-0 -62381-1 0  9997,2 54099  53.2169 189.5798 0001348  83.8978 213.8185 15.17437689  1304,6891.725,94.897,514.519,512.661,0.0
54099.0,STARLINK-5198,PAYLOAD,2022-12-25 08:00:01,15.16407416,0.0001329,53.2172,187.6836,61.2825,353.0593,-0.063203,-0.01145498,0.0,0 STARLINK-5198,1 54099U 22136BA  22359.33334491 -.01145498  00000-0 -63203-1 0  9991,2 54099  53.2172 187.6836 0001329  61.2825 353.0593 15.16407416 10775,6894.846,94.961,517.627,515.795,0.0
54099.0,STARLINK-5198,PAYLOAD,2022-12-25 14:00:01,15.15807644,0.0001314,53.2165,186.549,64.4091,275.1641,-0.0651409999999999,-0.01159333,0.0,0 STARLINK-5198,1 54099U 22136BA  22359.58334491 -.01159333  00000-0 -65141-1 0  9994,2 54099  53.2165 186.5490 0001314  64.4091 275.1641 15.15807644  1308,6896.665,94.999,519.436,517.623,0.0
54099.0,STARLINK-5198,PAYLOAD,2022-12-26 00:00:00,15.14778909,0.0001333,53.2171,184.6613,72.5999,21.1507,-0.06605,-0.01142882,0.0,0 STARLINK-5198,1 54099U 22136BA  22360.00001157 -.01142882  00000-0 -66050-1 0  9994,2 54099  53.2171 184.6613 0001333  72.5999  21.1507 15.14778909  1309,6899.7869999999975,95.063,522.572,520.732,0.0
54099.0,STARLINK-5198,PAYLOAD,2022-12-26 06:00:00,15.14188205,0.0001369,53.2169,183.528,57.6353,319.878,-0.069075,-0.01172784,0.0,0 STARLINK-5198,1 54099U 22136BA  22360.25001157 -.01172784  00000-0 -69075-1 0  9995,2 54099  53.2169 183.5280 0001369  57.6353 319.8780 15.14188205 10912,6901.581,95.1,524.391,522.501,0.0
54099.0,STARLINK-5198,PAYLOAD,2022-12-26 14:00:01,15.13366128,0.0001386999999999,53.2166,182.0199,57.497,337.5243,-0.069812,-0.01159199,0.0,0 STARLINK-5198,1 54099U 22136BA  22360.58334491 -.01159199  00000-0 -69812-1 0  9995,2 54099  53.2166 182.0199 0001387  57.4970 337.5243 15.13366128  1300,6904.08,95.152,526.903,524.988,0.0
54099.0,STARLINK-5198,PAYLOAD,2022-12-26 22:00:00,15.12552239,0.0001307,53.2169,180.5159,65.1131,346.4338,-0.071411,-0.01158886,0.0,0 STARLINK-5198,1 54099U 22136BA  22360.91667824 -.01158886  00000-0 -71411-1 0  9991,2 54099  53.2169 180.5159 0001307  65.1131 346.4338 15.12552239  1302,6906.557,95.203,529.3240000000002,527.519,0.0
54099.0,STARLINK-5198,PAYLOAD,2022-12-27 08:00:01,15.11524809,0.0001564,53.2171,178.6339,55.5728,105.3271,-0.072525,-0.0114479,0.0,0 STARLINK-5198,1 54099U 22136BA  22361.33335648 -.01144790  00000-0 -72525-1 0  9990,2 54099  53.2171 178.6339 0001564  55.5728 105.3271 15.11524809 11077,6909.686,95.268,532.632,530.47,0.0
54099.0,STARLINK-5198,PAYLOAD,2022-12-27 14:00:01,15.10926763,0.0001564,53.2168,177.5079,54.3025,27.3652,-0.074959,-0.01162148,0.0,0 STARLINK-5198,1 54099U 22136BA  22361.58334491 -.01162148  00000-0 -74959-1 0  9992,2 54099  53.2168 177.5079 0001564  54.3025  27.3652 15.10926763  1304,6911.509,95.306,534.455,532.293,0.0
54099.0,STARLINK-5198,PAYLOAD,2022-12-27 22:00:00,15.10095905,0.0001513,53.217,176.0095,60.566,34.699,-0.074415,-0.0113003,0.0,0 STARLINK-5198,1 54099U 22136BA  22361.91667824 -.01130030  00000-0 -74415-1 0  9990,2 54099  53.2170 176.0095 0001513  60.5660  34.6990 15.10095905  1308,6914.044,95.358,536.955,534.863,0.0
54099.0,STARLINK-5198,PAYLOAD,2022-12-28 08:00:01,15.090305,0.0001645,53.2172,174.1345,52.6492,148.2493,-0.018424,-0.0028363,0.0,0 STARLINK-5198,1 54099U 22136BA  22362.33334491 -.00283630  00000-0 -18424-1 0  9990,2 54099  53.2172 174.1345 0001645  52.6492 148.2493 15.09030500 11228,6917.2980000000025,95.426,540.3009999999998,538.025,0.0
54099.0,STARLINK-5198,PAYLOAD,2022-12-28 14:00:01,15.08848351,0.0001521999999999,53.2146,173.0158,63.9954,55.5541,-0.00018227,-3.188e-05,0.0,0 STARLINK-5198,1 54099U 22136BA  22362.58334491 -.00003188  00000-0 -18227-3 0  9998,2 54099  53.2146 173.0158 0001522  63.9954  55.5541 15.08848351  1303,6917.855,95.437,540.773,538.6669999999998,0.0
54099.0,STARLINK-5198,PAYLOAD,2022-12-28 18:00:00,15.08851768,0.0001619,53.2153,172.2683,58.6495,246.702,-0.0011493,-0.00018539,0.0,0 STARLINK-5198,1 54099U 22136BA  22362.75001157 -.00018539  00000-0 -11493-2 0  9990,2 54099  53.2153 172.2683 0001619  58.6495 246.7020 15.08851768 11294,6917.844,95.437,540.8290000000002,538.589,0.0
54099.0,STARLINK-5198,PAYLOAD,2022-12-28 22:00:00,15.08830119,0.0001639,53.2146,171.5208,56.4407,74.7272,0.0032705,0.00052133,0.0,0 STARLINK-5198,1 54099U 22136BA  22362.91667824  .00052133  00000-0  32705-2 0  9992,2 54099  53.2146 171.5208 0001639  56.4407  74.7272 15.08830119  1308,6917.911,95.438,540.909,538.6419999999998,0.0
54099.0,STARLINK-5198,PAYLOAD,2022-12-29 08:00:01,15.088463399999998,0.0001375,53.2147,169.6482,62.7338,172.9519,-0.0025401,-0.00040493,0.0,0 STARLINK-5198,1 54099U 22136BA  22363.33334491 -.00040493  00000-0 -25401-2 0  9993,2 54099  53.2147 169.6482 0001375  62.7338 172.9519 15.08846340 11388,6917.861,95.437,540.677,538.775,0.0
54099.0,STARLINK-5198,PAYLOAD,2022-12-29 14:00:01,15.08824707,0.0001371,53.2149,168.5266,60.8922,93.4846,-0.0014575999999999,-0.00023401,0.0,0 STARLINK-5198,1 54099U 22136BA  22363.58334491 -.00023401  00000-0 -14576-2 0  9991,2 54099  53.2149 168.5266 0001371  60.8922  93.4846 15.08824707  1306,6917.927,95.439,540.741,538.844,0.0
54099.0,STARLINK-5198,PAYLOAD,2022-12-30 00:00:00,15.08824269,0.000151,53.2144,166.6572,54.1686,204.6623,0.0023525,0.00037335,0.0,0 STARLINK-5198,1 54099U 22136BA  22364.00001157  .00037335  00000-0  23525-2 0  9992,2 54099  53.2144 166.6572 0001510  54.1686 204.6623 15.08824269 11480,6917.928000000001,95.439,540.8380000000002,538.749,0.0
